[{"OBJECT_NAME":"STARLINK-3647","OBJECT_ID":"2022-025AQ","EPOCH":"2025-12-13T11:40:48.519552","MEAN_MOTION":15.08852843,"ECCENTRICITY":0.00013206,"INCLINATION":53.2174,"RA_OF_ASC_NODE":46.1015,"ARG_OF_PERICENTER":101.0239,"MEAN_ANOMALY":259.0902,"EPHEMERIS_TYPE":0,"CLASSIFICATION_TYPE":"U","NORAD_CAT_ID":51994,"ELEMENT_SET_NO":999,"REV_AT_EPOCH":20790,"BSTAR":0.00067248684,"MEAN_MOTION_DOT":0.00010435,"MEAN_MOTION_DDOT":0},{"OBJECT_NAME":"STARLINK-3636","OBJECT_ID":"2022-025AR","EPOCH":"2025-12-14T03:50:33.978336","MEAN_MOTION":15.08838316,"ECCENTRICITY":0.00014327,"INCLINATION":53.219,"RA_OF_ASC_NODE":43.0791,"ARG_OF_PERICENTER":88.8691,"MEAN_ANOMALY":271.2466,"EPHEMERIS_TYPE":0,"CLASSIFICATION_TYPE":"U","NORAD_CAT_ID":51995,"ELEMENT_SET_NO":999,"REV_AT_EPOCH":20799,"BSTAR":1.923289e-5,"MEAN_MOTION_DOT":1.8e-7,"MEAN_MOTION_DDOT":0},{"OBJECT_NAME":"STARLINK-3538","OBJECT_ID":"2022-025AS","EPOCH":"2025-12-14T08:15:32.515776","MEAN_MOTION":15.08828236,"ECCENTRICITY":0.00010469,"INCLINATION":53.2161,"RA_OF_ASC_NODE":42.2527,"ARG_OF_PERICENTER":91.1459,"MEAN_ANOMALY":268.9653,"EPHEMERIS_TYPE":0,"CLASSIFICATION_TYPE":"U","NORAD_CAT_ID":51996,"ELEMENT_SET_NO":999,"REV_AT_EPOCH":20803,"BSTAR":0.00014754406,"MEAN_MOTION_DOT":2.06e-5,"MEAN_MOTION_DDOT":0},{"OBJECT_NAME":"STARLINK-3589","OBJECT_ID":"2022-025AT","EPOCH":"2025-12-14T03:45:15.973632","MEAN_MOTION":15.08849157,"ECCENTRICITY":0.00010069,"INCLINATION":53.2175,"RA_OF_ASC_NODE":43.0967,"ARG_OF_PERICENTER":83.9671,"MEAN_ANOMALY":276.1436,"EPHEMERIS_TYPE":0,"CLASSIFICATION_TYPE":"U","NORAD_CAT_ID":51997,"ELEMENT_SET_NO":999,"REV_AT_EPOCH":20799,"BSTAR":0.00033945572,"MEAN_MOTION_DOT":5.12e-5,"MEAN_MOTION_DDOT":0},{"OBJECT_NAME":"STARLINK-3618","OBJECT_ID":"2022-025AU","EPOCH":"2025-12-14T07:33:07.934688","MEAN_MOTION":15.08845095,"ECCENTRICITY":0.00021441,"INCLINATION":53.2173,"RA_OF_ASC_NODE":42.3768,"ARG_OF_PERICENTER":122.9111,"MEAN_ANOMALY":237.2088,"EPHEMERIS_TYPE":0,"CLASSIFICATION_TYPE":"U","NORAD_CAT_ID":51998,"ELEMENT_SET_NO":999,"REV_AT_EPOCH":20803,"BSTAR":-0.00016031207,"MEAN_MOTION_DOT":-2.839e-5,"MEAN_MOTION_DDOT":0},{"OBJECT_NAME":"STARLINK-3653","OBJECT_ID":"2022-025AW","EPOCH":"2025-12-14T07:11:56.050656","MEAN_MOTION":15.08793539,"ECCENTRICITY":0.00020925,"INCLINATION":53.2193,"RA_OF_ASC_NODE":42.3648,"ARG_OF_PERICENTER":97.0161,"MEAN_ANOMALY":263.1069,"EPHEMERIS_TYPE":0,"CLASSIFICATION_TYPE":"U","NORAD_CAT_ID":52000,"ELEMENT_SET_NO":999,"REV_AT_EPOCH":20803,"BSTAR":0.00069072247,"MEAN_MOTION_DOT":0.00010708,"MEAN_MOTION_DDOT":0},{"OBJECT_NAME":"STARLINK-3659","OBJECT_ID":"2022-025AX","EPOCH":"2025-12-14T07:29:13.066656","MEAN_MOTION":15.08849921,"ECCENTRICITY":0.00012234,"INCLINATION":53.217,"RA_OF_ASC_NODE":42.406,"ARG_OF_PERICENTER":96.708,"MEAN_ANOMALY":263.4052,"EPHEMERIS_TYPE":0,"CLASSIFICATION_TYPE":"U","NORAD_CAT_ID":52001,"ELEMENT_SET_NO":999,"REV_AT_EPOCH":20803,"BSTAR":0.00045777114,"MEAN_MOTION_DOT":7.007e-5,"MEAN_MOTION_DDOT":0},{"OBJECT_NAME":"STARLINK-3668","OBJECT_ID":"2022-025AY","EPOCH":"2025-12-14T07:27:51.154272","MEAN_MOTION":15.08824191,"ECCENTRICITY":0.00014043,"INCLINATION":53.2178,"RA_OF_ASC_NODE":42.4397,"ARG_OF_PERICENTER":92.2083,"MEAN_ANOMALY":267.907,"EPHEMERIS_TYPE":0,"CLASSIFICATION_TYPE":"U","NORAD_CAT_ID":52002,"ELEMENT_SET_NO":999,"REV_AT_EPOCH":20803,"BSTAR":1.116209e-5,"MEAN_MOTION_DOT":-1.1e-6,"MEAN_MOTION_DDOT":0},{"OBJECT_NAME":"STARLINK-3712","OBJECT_ID":"2022-029C","EPOCH":"2025-12-13T18:24:51.997536","MEAN_MOTION":15.0884501,"ECCENTRICITY":0.00012426,"INCLINATION":53.2168,"RA_OF_ASC_NODE":114.8431,"ARG_OF_PERICENTER":87.2419,"MEAN_ANOMALY":272.8716,"EPHEMERIS_TYPE":0,"CLASSIFICATION_TYPE":"U","NORAD_CAT_ID":52090,"ELEMENT_SET_NO":999,"REV_AT_EPOCH":20768,"BSTAR":0.00011274361,"MEAN_MOTION_DOT":1.507e-5,"MEAN_MOTION_DDOT":0},{"OBJECT_NAME":"STARLINK-3716","OBJECT_ID":"2022-029E","EPOCH":"2025-12-13T18:30:10.391904","MEAN_MOTION":15.08837813,"ECCENTRICITY":0.00012603,"INCLINATION":53.2166,"RA_OF_ASC_NODE":114.826,"ARG_OF_PERICENTER":91.289,"MEAN_ANOMALY":268.8246,"EPHEMERIS_TYPE":0,"CLASSIFICATION_TYPE":"U","NORAD_CAT_ID":52092,"ELEMENT_SET_NO":999,"REV_AT_EPOCH":20768,"BSTAR":3.9256119e-5,"MEAN_MOTION_DOT":3.37e-6,"MEAN_MOTION_DDOT":0},{"OBJECT_NAME":"STARLINK-3673","OBJECT_ID":"2022-029F","EPOCH":"2025-12-14T08:34:07.895712","MEAN_MOTION":15.08837149,"ECCENTRICITY":8.985e-5,"INCLINATION":53.2177,"RA_OF_ASC_NODE":112.204,"ARG_OF_PERICENTER":83.1089,"MEAN_ANOMALY":277.0006,"EPHEMERIS_TYPE":0,"CLASSIFICATION_TYPE":"U","NORAD_CAT_ID":52093,"ELEMENT_SET_NO":999,"REV_AT_EPOCH":20777,"BSTAR":8.9793386e-5,"MEAN_MOTION_DOT":1.142e-5,"MEAN_MOTION_DDOT":0},{"OBJECT_NAME":"STARLINK-3714","OBJECT_ID":"2022-029G","EPOCH":"2025-12-14T02:16:30.446976","MEAN_MOTION":15.08857734,"ECCENTRICITY":0.00011907,"INCLINATION":53.2154,"RA_OF_ASC_NODE":113.3696,"ARG_OF_PERICENTER":83.6635,"MEAN_ANOMALY":276.4493,"EPHEMERIS_TYPE":0,"CLASSIFICATION_TYPE":"U","NORAD_CAT_ID":52094,"ELEMENT_SET_NO":999,"REV_AT_EPOCH":20773,"BSTAR":0.00024881557,"MEAN_MOTION_DOT":3.676e-5,"MEAN_MOTION_DDOT":0},{"OBJECT_NAME":"STARLINK-3701","OBJECT_ID":"2022-029H","EPOCH":"2025-12-14T08:22:09.688800","MEAN_MOTION":15.08866106,"ECCENTRICITY":0.00018617,"INCLINATION":53.2181,"RA_OF_ASC_NODE":112.2299,"ARG_OF_PERICENTER":82.082,"MEAN_ANOMALY":278.0383,"EPHEMERIS_TYPE":0,"CLASSIFICATION_TYPE":"U","NORAD_CAT_ID":52095,"ELEMENT_SET_NO":999,"REV_AT_EPOCH":20777,"BSTAR":0.00087337461,"MEAN_MOTION_DOT":0.00013649,"MEAN_MOTION_DDOT":0},{"OBJECT_NAME":"STARLINK-3717","OBJECT_ID":"2022-029J","EPOCH":"2025-12-14T01:30:07.929792","MEAN_MOTION":15.08840929,"ECCENTRICITY":0.00012244,"INCLINATION":53.2177,"RA_OF_ASC_NODE":103.5151,"ARG_OF_PERICENTER":85.9062,"MEAN_ANOMALY":274.207,"EPHEMERIS_TYPE":0,"CLASSIFICATION_TYPE":"U","NORAD_CAT_ID":52096,"ELEMENT_SET_NO":999,"REV_AT_EPOCH":20785,"BSTAR":0.00013053721,"MEAN_MOTION_DOT":1.79e-5,"MEAN_MOTION_DDOT":0},{"OBJECT_NAME":"STARLINK-3665","OBJECT_ID":"2022-029L","EPOCH":"2025-12-14T08:27:27.011808","MEAN_MOTION":15.0883538,"ECCENTRICITY":0.00019674,"INCLINATION":53.2172,"RA_OF_ASC_NODE":112.2171,"ARG_OF_PERICENTER":66.5926,"MEAN_ANOMALY":293.5273,"EPHEMERIS_TYPE":0,"CLASSIFICATION_TYPE":"U","NORAD_CAT_ID":52098,"ELEMENT_SET_NO":999,"REV_AT_EPOCH":20777,"BSTAR":2.616935e-6,"MEAN_MOTION_DOT":-2.47e-6,"MEAN_MOTION_DDOT":0},{"OBJECT_NAME":"STARLINK-3702","OBJECT_ID":"2022-029N","EPOCH":"2025-12-14T08:16:51.172608","MEAN_MOTION":15.08837782,"ECCENTRICITY":0.00012565,"INCLINATION":53.2178,"RA_OF_ASC_NODE":112.246,"ARG_OF_PERICENTER":92.4757,"MEAN_ANOMALY":267.6379,"EPHEMERIS_TYPE":0,"CLASSIFICATION_TYPE":"U","NORAD_CAT_ID":52100,"ELEMENT_SET_NO":999,"REV_AT_EPOCH":20777,"BSTAR":0.00010685976,"MEAN_MOTION_DOT":1.413e-5,"MEAN_MOTION_DDOT":0}]
