STARLINK-3647           
1 51994U 22025AQ  25347.48667268  .00010435  00000+0  67249-3 0  9990
2 51994  53.2174  46.1015 0001320 101.0239 259.0902 15.08852843207900
STARLINK-3636           
1 51995U 22025AR  25348.16011549  .00000018  00000+0  19233-4 0  9999
2 51995  53.2190  43.0791 0001432  88.8691 271.2466 15.08838316207993
STARLINK-3538           
1 51996U 22025AS  25348.34412634  .00002060  00000+0  14754-3 0  9991
2 51996  53.2161  42.2527 0001046  91.1459 268.9653 15.08828236208037
STARLINK-3589           
1 51997U 22025AT  25348.15643488  .00005120  00000+0  33946-3 0  9998
2 51997  53.2175  43.0967 0001006  83.9671 276.1436 15.08849157207990
STARLINK-3618           
1 51998U 22025AU  25348.31467517 -.00002839  00000+0 -16031-3 0  9996
2 51998  53.2173  42.3768 0002144 122.9111 237.2088 15.08845095208031
STARLINK-3653           
1 52000U 22025AW  25348.29995429  .00010708  00000+0  69072-3 0  9991
2 52000  53.2193  42.3648 0002092  97.0161 263.1069 15.08793539208036
STARLINK-3659           
1 52001U 22025AX  25348.31195679  .00007007  00000+0  45777-3 0  9998
2 52001  53.2170  42.4060 0001223  96.7080 263.4052 15.08849921208034
STARLINK-3668           
1 52002U 22025AY  25348.31100873 -.00000110  00000+0  11162-4 0  9992
2 52002  53.2178  42.4397 0001404  92.2083 267.9070 15.08824191208032
STARLINK-3712           
1 52090U 22029C   25347.76726849  .00001507  00000+0  11274-3 0  9991
2 52090  53.2168 114.8431 0001242  87.2419 272.8716 15.08845010207683
STARLINK-3716           
1 52092U 22029E   25347.77095361  .00000337  00000+0  39256-4 0  9993
2 52092  53.2166 114.8260 0001260  91.2890 268.8246 15.08837813207686
STARLINK-3673           
1 52093U 22029F   25348.35703583  .00001142  00000+0  89793-4 0  9997
2 52093  53.2177 112.2040 0000898  83.1089 277.0006 15.08837149207771
STARLINK-3714           
1 52094U 22029G   25348.09479684  .00003676  00000+0  24882-3 0  9992
2 52094  53.2154 113.3696 0001190  83.6635 276.4493 15.08857734207735
STARLINK-3701           
1 52095U 22029H   25348.34872325  .00013649  00000+0  87337-3 0  9995
2 52095  53.2181 112.2299 0001861  82.0820 278.0383 15.08866106207770
STARLINK-3717           
1 52096U 22029J   25348.06259178  .00001790  00000+0  13054-3 0  9999
2 52096  53.2177 103.5151 0001224  85.9062 274.2070 15.08840929207854
STARLINK-3665           
1 52098U 22029L   25348.35239597 -.00000247  00000+0  26169-5 0  9996
2 52098  53.2172 112.2171 0001967  66.5926 293.5273 15.08835380207773
STARLINK-3702           
1 52100U 22029N   25348.34503672  .00001413  00000+0  10686-3 0  9997
2 52100  53.2178 112.2460 0001256  92.4757 267.6379 15.08837782207772
